STARLINK-2169
1 27752C 21017AG  21325.16076026  .00005070  00000-0  33976-3 0  3253
2 27752  53.0559  52.5196 0001009  79.9508 343.6298 15.06384837    11
